[
    {
        "Altitude(m)": 708988.1818040969,
        "Argument of Periapsis(deg)": 0.0,
        "Eccentricity": 0.0,
        "Inclination(deg)": 45.0,
        "Latitude(deg)": -22.638709849678,
        "Longitude(deg)": 150.52306103166825,
        "Mean Anomaly(deg)": -32.72730000000006,
        "RAAN(deg)": 275.0,
        "Satellite Name": "Constellation 1 1230",
        "Satellite Number": 1230,
        "Semi-Major Axis(m)": 7083131.272910544,
        "Time(s)": 0
    },
    {
        "Altitude(m)": 708974.624356571,
        "Argument of Periapsis(deg)": 5.994800624540561e-05,
        "Eccentricity": 0.0,
        "Inclination(deg)": 45.0,
        "Latitude(deg)": -22.599484237439217,
        "Longitude(deg)": 150.5691383247514,
        "Mean Anomaly(deg)": -32.666598859750124,
        "RAAN(deg)": 274.9999434108344,
        "Satellite Name": "Constellation 1 1230",
        "Satellite Number": 1230,
        "Semi-Major Axis(m)": 7083131.272910544,
        "Time(s)": 1
    },
    {
        "Altitude(m)": 708961.0721853208,
        "Argument of Periapsis(deg)": 0.00011989601249081122,
        "Eccentricity": 0.0,
        "Inclination(deg)": 45.0,
        "Latitude(deg)": -22.560242669463083,
        "Longitude(deg)": 150.61518731681196,
        "Mean Anomaly(deg)": -32.60589771950024,
        "RAAN(deg)": 274.9998868216689,
        "Satellite Name": "Constellation 1 1230",
        "Satellite Number": 1230,
        "Semi-Major Axis(m)": 7083131.272910544,
        "Time(s)": 2
    },
    {
        "Altitude(m)": 708947.5253354703,
        "Argument of Periapsis(deg)": 0.00017984401873621686,
        "Eccentricity": 0.0,
        "Inclination(deg)": 45.0,
        "Latitude(deg)": -22.520985184728353,
        "Longitude(deg)": 150.66120806719886,
        "Mean Anomaly(deg)": -32.54519657925035,
        "RAAN(deg)": 274.99983023250326,
        "Satellite Name": "Constellation 1 1230",
        "Satellite Number": 1230,
        "Semi-Major Axis(m)": 7083131.272910544,
        "Time(s)": 3
    },
    {
        "Altitude(m)": 708933.9838521132,
        "Argument of Periapsis(deg)": 0.00023979202498162244,
        "Eccentricity": 0.0,
        "Inclination(deg)": 45.0,
        "Latitude(deg)": -22.481711822158754,
        "Longitude(deg)": 150.70720063524146,
        "Mean Anomaly(deg)": -32.48449543900041,
        "RAAN(deg)": 274.9997736433377,
        "Satellite Name": "Constellation 1 1230",
        "Satellite Number": 1230,
        "Semi-Major Axis(m)": 7083131.272910544,
        "Time(s)": 4
    },
    {
        "Altitude(m)": 708920.4477803037,
        "Argument of Periapsis(deg)": 0.00029974003122702807,
        "Eccentricity": 0.0,
        "Inclination(deg)": 45.0,
        "Latitude(deg)": -22.442422620623127,
        "Longitude(deg)": 150.75316508024946,
        "Mean Anomaly(deg)": -32.42379429875048,
        "RAAN(deg)": 274.99971705417215,
        "Satellite Name": "Constellation 1 1230",
        "Satellite Number": 1230,
        "Semi-Major Axis(m)": 7083131.272910544,
        "Time(s)": 5
    },
    {
        "Altitude(m)": 708906.9171650595,
        "Argument of Periapsis(deg)": 0.00035968803747243373,
        "Eccentricity": 0.0,
        "Inclination(deg)": 45.0,
        "Latitude(deg)": -22.40311761893542,
        "Longitude(deg)": 150.79910146151266,
        "Mean Anomaly(deg)": -32.36309315850069,
        "RAAN(deg)": 274.99966046500657,
        "Satellite Name": "Constellation 1 1230",
        "Satellite Number": 1230,
        "Semi-Major Axis(m)": 7083131.272910544,
        "Time(s)": 6
    },
    {
        "Altitude(m)": 708893.3920513731,
        "Argument of Periapsis(deg)": 0.00041963604371783933,
        "Eccentricity": 0.0,
        "Inclination(deg)": 45.0,
        "Latitude(deg)": -22.363796855854304,
        "Longitude(deg)": 150.8450096702046,
        "Mean Anomaly(deg)": -32.30239201825075,
        "RAAN(deg)": 274.99960387584105,
        "Satellite Name": "Constellation 1 1230",
        "Satellite Number": 1230,
        "Semi-Major Axis(m)": 7083131.272910544,
        "Time(s)": 7
    },
    {
        "Altitude(m)": 708879.8724841897,
        "Argument of Periapsis(deg)": 0.0004795840499632449,
        "Eccentricity": 0.0,
        "Inclination(deg)": 45.0,
        "Latitude(deg)": -22.324460370084797,
        "Longitude(deg)": 150.89089010176886,
        "Mean Anomaly(deg)": -32.24169087800077,
        "RAAN(deg)": 274.9995472866754,
        "Satellite Name": "Constellation 1 1230",
        "Satellite Number": 1230,
        "Semi-Major Axis(m)": 7083131.272910544,
        "Time(s)": 8
    },
    {
        "Altitude(m)": 708866.3585084386,
        "Argument of Periapsis(deg)": 0.0005395320562086505,
        "Eccentricity": 0.0,
        "Inclination(deg)": 45.0,
        "Latitude(deg)": -22.285108200276692,
        "Longitude(deg)": 150.9367426473382,
        "Mean Anomaly(deg)": -32.180989737750934,
        "RAAN(deg)": 274.9994906975098,
        "Satellite Name": "Constellation 1 1230",
        "Satellite Number": 1230,
        "Semi-Major Axis(m)": 7083131.272910544,
        "Time(s)": 9
    },
    {
        "Altitude(m)": 708852.8501689906,
        "Argument of Periapsis(deg)": 0.0005994800624540561,
        "Eccentricity": 0.0,
        "Inclination(deg)": 45.0,
        "Latitude(deg)": -22.245740385025353,
        "Longitude(deg)": 150.98256736612205,
        "Mean Anomaly(deg)": -32.120288597501045,
        "RAAN(deg)": 274.9994341083443,
        "Satellite Name": "Constellation 1 1230",
        "Satellite Number": 1230,
        "Semi-Major Axis(m)": 7083131.272910544,
        "Time(s)": 10
    },
    {
        "Altitude(m)": 708839.3475107014,
        "Argument of Periapsis(deg)": 0.0006594280686994618,
        "Eccentricity": 0.0,
        "Inclination(deg)": 45.0,
        "Latitude(deg)": -22.206356962871887,
        "Longitude(deg)": 151.02836431730924,
        "Mean Anomaly(deg)": -32.059587457251105,
        "RAAN(deg)": 274.9993775191787,
        "Satellite Name": "Constellation 1 1230",
        "Satellite Number": 1230,
        "Semi-Major Axis(m)": 7083131.272910544,
        "Time(s)": 11
    },
    {
        "Altitude(m)": 708825.8505783791,
        "Argument of Periapsis(deg)": 0.0007193760749448675,
        "Eccentricity": 0.0,
        "Inclination(deg)": 45.0,
        "Latitude(deg)": -22.16695797230329,
        "Longitude(deg)": 151.07413356006762,
        "Mean Anomaly(deg)": -31.99888631700117,
        "RAAN(deg)": 274.9993209300132,
        "Satellite Name": "Constellation 1 1230",
        "Satellite Number": 1230,
        "Semi-Major Axis(m)": 7083131.272910544,
        "Time(s)": 12
    },
    {
        "Altitude(m)": 708812.3594168014,
        "Argument of Periapsis(deg)": 0.000779324081190273,
        "Eccentricity": 0.0,
        "Inclination(deg)": 45.0,
        "Latitude(deg)": -22.127543451752565,
        "Longitude(deg)": 151.11987515354423,
        "Mean Anomaly(deg)": -31.938185176751382,
        "RAAN(deg)": 274.9992643408476,
        "Satellite Name": "Constellation 1 1230",
        "Satellite Number": 1230,
        "Semi-Major Axis(m)": 7083131.272910544,
        "Time(s)": 13
    },
    {
        "Altitude(m)": 708798.8740707085,
        "Argument of Periapsis(deg)": 0.0008392720874356787,
        "Eccentricity": 0.0,
        "Inclination(deg)": 45.0,
        "Latitude(deg)": -22.088113439598256,
        "Longitude(deg)": 151.16558915686548,
        "Mean Anomaly(deg)": -31.877484036501397,
        "RAAN(deg)": 274.999207751682,
        "Satellite Name": "Constellation 1 1230",
        "Satellite Number": 1230,
        "Semi-Major Axis(m)": 7083131.272910544,
        "Time(s)": 14
    },
    {
        "Altitude(m)": 708785.3945848114,
        "Argument of Periapsis(deg)": 0.0008992200936810842,
        "Eccentricity": 0.0,
        "Inclination(deg)": 45.0,
        "Latitude(deg)": -22.048667974165262,
        "Longitude(deg)": 151.21127546103907,
        "Mean Anomaly(deg)": -31.816782896251457,
        "RAAN(deg)": 274.99915116251645,
        "Satellite Name": "Constellation 1 1230",
        "Satellite Number": 1230,
        "Semi-Major Axis(m)": 7083131.272910544,
        "Time(s)": 15
    },
    {
        "Altitude(m)": 708771.9210037739,
        "Argument of Periapsis(deg)": 0.0009591680999264898,
        "Eccentricity": 0.0,
        "Inclination(deg)": 45.0,
        "Latitude(deg)": -22.00920709372543,
        "Longitude(deg)": 151.2569344613425,
        "Mean Anomaly(deg)": -31.756081756001624,
        "RAAN(deg)": 274.9990945733509,
        "Satellite Name": "Constellation 1 1230",
        "Satellite Number": 1230,
        "Semi-Major Axis(m)": 7083131.272910544,
        "Time(s)": 16
    },
    {
        "Altitude(m)": 708758.4533722288,
        "Argument of Periapsis(deg)": 0.0010191161061718953,
        "Eccentricity": 0.0,
        "Inclination(deg)": 45.0,
        "Latitude(deg)": -21.969730836495955,
        "Longitude(deg)": 151.3025660487409,
        "Mean Anomaly(deg)": -31.695380615751738,
        "RAAN(deg)": 274.99903798418535,
        "Satellite Name": "Constellation 1 1230",
        "Satellite Number": 1230,
        "Semi-Major Axis(m)": 7083131.272910544,
        "Time(s)": 17
    },
    {
        "Altitude(m)": 708744.9917347726,
        "Argument of Periapsis(deg)": 0.001079064112417301,
        "Eccentricity": 0.0,
        "Inclination(deg)": 45.0,
        "Latitude(deg)": -21.930239240640866,
        "Longitude(deg)": 151.34817028227474,
        "Mean Anomaly(deg)": -31.6346794755018,
        "RAAN(deg)": 274.99898139501977,
        "Satellite Name": "Constellation 1 1230",
        "Satellite Number": 1230,
        "Semi-Major Axis(m)": 7083131.272910544,
        "Time(s)": 18
    }
]